SILVERSAT               
1 66909U 98067XV  26044.55324677  .00124119  00000+0  12580-2 0  9990
2 66909  51.6263 187.7333 0002749 293.7998  66.2709 15.64339222 11409
ISS OBJECT XW           
1 66910U 98067XW  26044.63745486  .00093835  00000+0  10213-2 0  9997
2 66910  51.6252 187.5401 0002037 327.1583  32.9284 15.62654303 11412
ISS OBJECT XX           
1 66911U 98067XX  26044.77458413  .00143289  00000+0  13632-2 0  9991
2 66911  51.6235 186.2005 0003572 313.6050  46.4648 15.65853496 11437
ISS OBJECT XY           
1 66912U 98067XY  26044.77369545  .00071234  00000+0  87787-3 0  9992
2 66912  51.6274 187.7075 0000376 314.4648  45.6314 15.59544600 11411
ISS OBJECT XZ           
1 67683U 98067XZ  26045.27192640  .00041719  00000+0  73561-3 0  9994
2 67683  51.6301 188.0321 0010630 110.4640 249.7491 15.49925317  1156
GXIBA-1                 
1 67684U 98067YA  26045.26865816  .00075008  00000+0  12728-2 0  9991
2 67684  51.6304 188.0125 0012360 104.2585 255.9778 15.50730945  1153
CORAL                   
1 67685U 98067YB  26045.27126273  .00044668  00000+0  78218-3 0  9995
2 67685  51.6301 188.0281 0012562 106.0174 254.2200 15.50065759  1158
ISS OBJECT YC           
1 67686U 98067YC  26045.27070141  .00052245  00000+0  90918-3 0  9999
2 67686  51.6307 188.0255 0007758  80.7495 279.4371 15.50225641  1157
LEOPARD                 
1 67687U 98067YD  26045.27153491  .00042208  00000+0  74266-3 0  9996
2 67687  51.6306 188.0303 0007827  82.6227 277.5652 15.50007453  1073
ISS OBJECT YE           
1 67688U 98067YE  26045.27089425  .00048863  00000+0  85324-3 0  9992
2 67688  51.6308 188.0270 0007740  81.3262 278.8604 15.50158147  1076
CREW DRAGON 12          
1 67796U 26031A   26044.61047855  .00465694  11779-4  25516-3 0  9994
2 67796  51.6318 191.8838 0025866 226.1048 133.7834 16.18051748    32
